#dP2020 11 26  0  0  0.00000000      96 __u+U ITR00 FIT  IAC
## 2133 345600.00000000   900.00000000 59179 0.0000000000000
+  116   C06C07C08C09C10C11C12C13C14C16C19C20C21C22C23C24C25
+        C26C27C28C29C30C32C33C34C35C36C37C38C39C40C43C44C45
+        C46E01E02E03E04E05E07E08E09E11E12E13E14E15E18E19E21
+        E24E25E26E27E30E31E33E36G01G02G03G04G05G06G07G08G09
+        G10G11G12G13G14G15G16G17G18G19G20G21G22G23G24G25G26
+        G27G28G29G30G31G32J01J02J03R01R02R03R04R05R07R08R09
+        R12R13R14R15R16R17R18R19R20R21R22R23R24R25  0  0  0
++         8  9  7  8  8  6  6  8  7  8  7  7  6  6  7  8  8
++         6  8  7  7  7  7  6  8  9  9  6  8 11 10 10  9 10
++        10  6  6  7  4  7  8  6  6  6  7  6  6  6  6  8  6
++         6  5  6  6  5  7  6  6  6  7  6  6  7  6  5  5  6
++         5  5  7  7  6  7  6  5  7  5  6  5  5  6  7  6  6
++         7  5  6  6  6  7  7  7  7  8  6  6  6  6  7  6  7
++         7  5  7  6  7  7  5  7  7  7  8  0  6  7  0  0  0
%c M  cc GPS ccc cccc cccc cccc cccc ccccc ccccc ccccc ccccc
%c cc cc ccc ccc cccc cccc cccc cccc ccccc ccccc ccccc ccccc
%f  0.0000000  0.000000000  0.00000000000  0.000000000000000
%f  0.0000000  0.000000000  0.00000000000  0.000000000000000
%i    0    0    0    0      0      0      0      0         0
%i    0    0    0    0      0      0      0      0         0
/* INFORMATION & ANALYSIS CENTER (IAC)      ULTRA-RAPID DATA
/* S/V CLOCKS ARE ALIGNED TO GNSS TIME                      
/* G:C1WC2W R:C1PC2P E:C1XC5X C:C2IC6I J:C1CC2S             
/* PCV:IGS14_2132 OL/AL:FES2004  NONE     YN ORB:CoN CLK:CoN
*  2020 11 26 23 30  0.00000000
PC06 -21997.390889  36217.772987  -1470.597186     15.345410
PC07  -8584.117495  29354.134095 -28588.492543    -75.951652
PC08 -18583.776306  18900.334207  32781.444319   -735.501361
PC09 -11050.783965  37015.653599 -17132.965808    911.423783
PC10   4908.026555  36657.659146 -19644.313670   -134.119334
PC11 -13050.180009  -8304.822515 -23154.679887   -778.412211
PC12   3062.619034 -20892.214339 -18220.321690    632.171476
PC13  -3283.960776  22736.559078  35434.068141    762.009861
PC14 -15697.948670 -19156.854372  12924.961391    326.628000
PC16 -19848.650750  37093.814077  -4057.089311   -618.039065
PC19  17397.446236   9962.381036 -19391.746018    632.680267
PC20  12054.046122  24524.892451  -5588.047659   -904.913929
PC21    769.511592 -25105.793417 -12168.383895   -734.915958
PC22  12809.192369 -10802.943265 -22324.692129   -800.528854
PC23 -22473.559066   6131.546333 -15352.790965   -905.182617
PC24 -15291.764272 -15921.858673  17049.221765   -724.032597
PC25 -27247.243785  -5932.272718    682.243103   -840.990846
PC26   3795.881277 -15724.408260  22735.274738    919.591495
PC27 -11389.726901  23041.114858  10872.965901    439.547251
PC28 -21649.877575  16289.252332  -6654.771301   -141.097695
PC29  19218.101761   -751.409574  20218.692217    316.716521
PC30   5766.866818  16384.111801  21846.303809    409.366629
PC32   -630.599918  25086.643404  12208.675040   -884.379734
PC33 -17480.166287  -9975.310485  19332.589347   -849.817407
PC34  -6328.956116 -15957.147037 -22000.254609   -799.751926
PC35  21151.487097 -16823.679340   6893.099625   -541.038566
PC36  27067.446353   6733.728285   -934.511314   -823.340701
PC37  -4972.505781  15420.290587 -22699.653314   -870.789090
PC38 -14742.100028  22147.110576  32687.010005    114.407076
PC39 -14821.342625  38838.087972  -7426.276629     25.635477
PC40   -480.638899  33827.105674 -25036.971170    105.043793
PC43 -19119.744695    189.091615 -20332.461903 999999.999999
PC44  10705.414116 -23437.477545 -10681.621215    -95.824882
PC45  22431.634746  -6142.046833  15448.072143    293.006932
PC46  16122.284915  15609.014362 -16604.319041    526.429133
PE01  22528.010177  19163.179302  -1301.604019   -991.108998
PE02 -22560.026266 -19110.069836   1211.103821    179.355132
PE03 -11961.532103 -17797.900049  20399.681772   -369.474008
PE04  17487.124824  -3687.769560 -23599.588237   -655.989083
PE05    654.094061 -29133.283831   5192.993183   -326.109945
PE07 -12772.916033  23370.949312  12903.969965   -467.057062
PE08 -17326.653742   4128.194625  23632.317682   6085.786249
PE09  12505.537286 -23560.792865 -12852.408191   5852.041538
PE11  21749.349177 -16668.415051 -11188.895519   6750.862934
PE12  27915.671297  -5456.615270   8184.244516   5486.381568
PE13 -21939.617774  16606.268516  10914.690998    407.237932
PE14  17574.009818  -7134.771659  15645.775052  -1239.323677
PE15 -27897.695018   5674.844448  -8083.063873    841.894421
PE18 -21137.665753  -1272.729489 -23723.931880  -1353.977169
PE19  10667.777531  19808.122673 -19242.094737    138.370842
PE21   8340.939006  22018.685633 -17937.596290   -634.102912
PE24  11731.749703 -11741.620880  24504.210620   -604.392368
PE25  -8161.857852 -21986.562707  18066.924422   -521.039513
PE26  -2425.826774  17750.653780  23568.340526   2450.016027
PE27 -11134.122495  12186.073783 -24560.925887     84.488604
PE30 -24151.318779  -5405.937438 -16226.943881   3391.819632
PE31  23964.722671   4744.023541  16730.748172   -476.017268
PE33  17443.588958   8595.808314  22326.280942   -463.644331
PE36   3115.527189 -17765.273105 -23462.827658    475.653576
PG01  -5920.985453 -14016.401998 -22040.311381    803.162907
PG02 -16390.339037  14699.476336  15498.052523   -547.420137
PG03 -12007.914311 -22766.083727  -6843.857492    -14.430391
PG04  -1751.115209 -21960.607856  14805.023043   -159.048575
PG05  -5062.924864  16194.511460  20236.580722    -26.886824
PG06 -25798.929241   5741.871971   2894.757910     -2.460960
PG07 -21346.268414  -7542.318066  14598.273283   -422.315824
PG08   4575.959899 -25136.624735  -6694.664103     -0.797991
PG09 -11190.943565 -12125.887125  20743.910479   -294.400917
PG10  19643.543191   5952.519798 -16906.025469     -2.240770
PG11   3053.377198 -19580.819552 -18298.956060    -97.606730
PG12   8272.866523  23550.635618  -9530.756034     34.924403
PG13 -13203.808093  22961.612344    575.936559     68.963271
PG14 -19699.320573  -8773.161903 -15511.851558     44.754066
PG15   -919.078500  25304.202905  -7725.630982   -187.283828
PG16   6284.828084 -15471.858998  20311.426439   -242.064583
PG17 -16990.161465   6762.437870 -18816.596058    359.273700
PG18  22330.493880   6272.740063  12984.058762    326.163767
PG19 -18010.255732  12609.353883 -15126.957588    -73.045926
PG20  21727.807693  14144.810111  -6445.528444    525.861419
PG21   3622.895968 -15566.727668 -20414.257239     72.102532
PG22  -6637.859380 -21695.105718 -13739.036073   -724.197040
PG23  20314.915698  14638.180291  -8931.888775    104.689933
PG24   2117.522253  15739.077734 -21499.793204      5.886899
PG25  17543.162666  20027.812693   1875.979335     29.178213
PG26  15118.249185  -5781.228063  21056.727283      5.260360
PG27  12438.682207 -22737.591136   4732.951909    -22.309178
PG28 -18204.216305  -5907.171883 -17762.813950    650.575881
PG29   8353.818993  14324.208036  20701.542985   -244.456428
PG30 -26083.337300  -1038.529926   5547.531589   -342.441199
PG31  25452.931514  -6676.003214   5072.843481    -83.946645
PG32  17072.363922  -7147.798467 -18902.046957      3.744599
PJ01 -26851.811390  24297.960704  26561.442010   -335.538922
PJ02 -25111.818045  16160.908744 -25238.396935     -0.053490
PJ03 -26924.334101  32270.599451    559.637852     -3.581138
PR01   3103.116137 -21826.209999 -12848.629027     71.193932
PR02  -6713.770418 -23151.497263   8279.792036    456.117630
PR03 -11231.816637  -9216.521078  20984.133577     26.284005
PR04  -9113.580181   9686.894033  21786.045279     63.195662
PR05  -2067.543652  23237.422305  10349.223219     61.850617
PR07  11239.717756   8706.988377 -21162.235645    -41.540715
PR08   9204.041492  -9687.274267 -21677.927692    -55.916841
PR09  15347.322944  14074.924938 -14666.546152      9.888374
PR12   2270.308070 -10881.070201  22986.529870    183.469788
PR13 -15220.861837 -13885.256581  15025.132005    -47.194464
PR14 -23837.402744  -8846.047173  -2105.296320     58.144987
PR15 -18445.630012   1311.658739 -17544.979926    106.566914
PR16  -1085.792245  11444.335901 -22799.225764     -8.594427
PR17 -16423.284216   1262.688410 -19445.594058    377.383570
PR18 -21391.247094  12757.161952  -5597.243647     57.609055
PR19 -15794.724209  16958.451343  10651.278355   -121.364279
PR20   1240.708115  11492.730152  22755.310250   -427.515343
PR21  17078.134770  -2138.134281  18845.862142   -168.993932
PR22  21310.858348 -13201.196290   4451.974924    -83.897168
PR23      0.000000      0.000000      0.000000 999999.999999
PR24  -2321.433821 -11431.591145 -22665.070127     21.969147
PR25  23669.662054   5658.877984   7603.256765 999999.999999
EOF
